STARLINK-2022           
1 47643U 21012Z   23204.97806155  .00019752  00000+0  13421-2 0  9998
2 47643  53.0543  39.9361 0001358  96.4426 263.6718 15.06374276135615
